GORIZONT 1 [-]          
1 11158U 78118A   24011.92216503 -.00000108  00000+0  00000+0 0  9995
2 11158  11.3054 183.1077 3306064 312.8185  23.4473  1.00232659114040
GORIZONT 2 [-]          
1 11440U 79062A   24012.83104954 -.00000116  00000+0  00000+0 0  9994
2 11440   7.9167 295.2687 0004556 325.0493 230.8995  1.00238535129136
GORIZONT 3 [-]          
1 11648U 79105A   24012.88271095  .00000008  00000+0  00000+0 0  9997
2 11648   8.0866 296.8376 0012227 234.7198 326.0817  1.00197274113596
GORIZONT 4 [-]          
1 11841U 80049A   24012.61695204 -.00000192  00000+0  00000+0 0  9999
2 11841   9.2763 303.1688 0002088 335.8615 227.0756  0.98631829224779
GORIZONT 5 [-]          
1 13092U 82020A   24012.87879493  .00000020  00000+0  00000+0 0  9991
2 13092  10.3283 308.6621 0033417 229.5292 298.4042  0.98530799112866
GORIZONT 6 [-]          
1 13624U 82103A   24012.21641229 -.00000244  00000+0  00000+0 0  9995
2 13624   9.2751 308.8505 0001651 289.8008 269.2641  1.00314288112055
GORIZONT 7 [-]          
1 14160U 83066A   24012.51757205 -.00000054  00000+0  00000+0 0  9994
2 14160  11.0487 318.7127 0010876 325.2562  46.2186  0.98347925146039
GORIZONT 8 [-]          
1 14532U 83118A   24012.75920042 -.00000162  00000+0  00000+0 0  9992
2 14532  11.2519 320.6536 0028949 163.8738  33.3399  0.98270904111797
GORIZONT 9 [-]          
1 14940U 84041A   24012.88575675 -.00000168  00000+0  00000+0 0  9999
2 14940  10.4333 318.5487 0004973 242.4884 312.8032  1.00318500113052
GORIZONT 10 [-]         
1 15144U 84078A   24012.85181788 -.00000199  00000+0  00000+0 0  9995
2 15144  10.5459 319.5745 0001123 286.1721  85.4963  1.00373825145698
GORIZONT 11 [-]         
1 15484U 85007A   24013.04840957 -.00000351  00000+0  00000+0 0  9997
2 15484  10.7528 321.6244 0002374 198.4023  87.3152  1.00189355143749
GORIZONT 12 [-]         
1 16769U 86044A   24012.81735685 -.00000308  00000+0  00000+0 0  9993
2 16769  11.4717 327.1429 0002791 274.4354 263.6570  1.00324612138378
GORIZONT 13 [-]         
1 17083U 86090A   24013.08459705 -.00000138  00000+0  00000+0 0  9991
2 17083  13.4587 334.5743 0014063 344.1157 186.0790  0.96727098110097
GORIZONT 14 [-]         
1 17969U 87040A   24012.65150574 -.00000157  00000+0  00000+0 0  9995
2 17969  12.2410 325.7370 0030395 189.6657 176.7325  0.97660165111209
GORIZONT 15 [-]         
1 19017U 88028A   24012.95335531 -.00000030  00000+0  00000+0 0  9999
2 19017  13.8125 337.2376 0036574 172.0690   8.7195  0.97826186110819
GORIZONT 16 [-]         
1 19397U 88071A   24012.81892326 -.00000301  00000+0  00000+0 0  9994
2 19397  12.6519 335.9095 0012375  71.6079 105.8867  0.99971064129379
GORIZONT 17 [-]         
1 19765U 89004A   24012.82214310 -.00000239  00000+0  00000+0 0  9992
2 19765  13.2639 339.3473 0021726 148.6509  43.2826  0.99067032126793
GORIZONT 18 [-]         
1 20107U 89052A   24012.52202069  .00000057  00000+0  00000+0 0  9999
2 20107  13.3368 340.5798 0034505 327.7207  26.3694  0.99400485125598
GORIZONT 19 [-]         
1 20263U 89081A   24012.88445140 -.00000089  00000+0  00000+0 0  9998
2 20263  13.0499 339.6970 0004758 228.2934 298.2120  1.00188953 38451
GORIZONT 20 [-]         
1 20659U 90054A   24012.45166191  .00000023  00000+0  00000+0 0  9995
2 20659  13.5511 342.4748 0006906 194.3088 157.7874  1.00309636122794
GORIZONT 21 [-]         
1 20923U 90094A   24012.82688434 -.00000043  00000+0  00000+0 0  9996
2 20923  13.5787 343.2194 0006378 227.1546 195.2821  1.00297982121567
GORIZONT 22 [-]         
1 20953U 90102A   24012.58579792  .00000075  00000+0  00000+0 0  9992
2 20953  13.5463 343.6427 0001872 357.3321 356.6913  1.00224685121470
GORIZONT 23 [-]         
1 21533U 91046A   24012.58675515 -.00000091  00000+0  00000+0 0  9994
2 21533  14.3978 347.8494 0005137 304.6397  50.4414  0.98909773 37915
GORIZONT 24 [-]         
1 21759U 91074A   24012.72137072 -.00000212  00000+0  00000+0 0  9997
2 21759  14.5962 349.8159 0019813 239.3179 118.7651  0.98445201116222
GORIZONT 25 [-]         
1 21922U 92017A   24012.72023942 -.00000258  00000+0  00000+0 0  9997
2 21922  14.1271 349.0481 0027017  96.0827 257.1224  0.99857485116086
GORIZONT 26 [-]         
1 22041U 92043A   24012.68770722 -.00000228  00000+0  00000+0 0  9996
2 22041  14.3432 351.1311 0033115 248.5843 287.2083  0.99247304114677
GORIZONT 27 [-]         
1 22245U 92082A   24012.85312322 -.00000224  00000+0  00000+0 0  9998
2 22245  14.2516 350.5837 0010856  14.3826 332.7392  1.00152184118237
GORIZONT 28 [-]         
1 22880U 93069A   24012.69040493 -.00000073  00000+0  00000+0 0  9990
2 22880  14.4836 354.5392 0033380 148.7645  38.0720  0.99658252110290
GORIZONT 29 [-]         
1 22907U 93072A   24012.82370951 -.00000349  00000+0  00000+0 0  9990
2 22907  14.3827 353.9312 0009497 346.1120 199.6902  1.00151231110292
GORIZONT 30 [-]         
1 23108U 94030A   24012.58727729  .00000102  00000+0  00000+0 0  9997
2 23108  14.4151 354.8406 0003027 228.9808 121.3639  1.00204966108564
GORIZONT 31 [-]         
1 23775U 96005A   24012.42268332 -.00000175  00000+0  00000+0 0  9995
2 23775  14.4792   1.1604 0020321 216.8613 321.1462  0.99885067102194
GORIZONT 32 [-]         
1 23880U 96034A   24012.52427281  .00000003  00000+0  00000+0 0  9994
2 23880  14.4391   1.6279 0007108 355.8787   8.9111  1.00137719101156
GORIZONT 33 [-]         
1 26372U 00029A   24012.65768435  .00000091  00000+0  00000+0 0  9992
2 26372  13.4243  13.1318 0001653 175.9374 175.7566  1.00331311 86539
